STARLINK-5235           
1 54185U 22141AE  23364.25996711 -.00000146  00000+0  88999-5 0  9990
2 54185  53.2188 357.1215 0001730  86.9894 273.1296 15.08846533 65027
STARLINK-5194           
1 54186U 22141AF  23364.23518341 -.00000260  00000+0  17839-5 0  9990
2 54186  53.2188 347.6898 0001551 103.0895 257.0270 15.08845278 65154
STARLINK-5240           
1 54187U 22141AG  23364.39982129  .00000780  00000+0  67131-4 0  9992
2 54187  53.2196 356.5815 0001882 111.3453 248.7741 15.08841627 65043
STARLINK-5238           
1 54188U 22141AH  23364.36398287  .00002392  00000+0  16831-3 0  9997
2 54188  53.2185 347.0797 0001571  97.8934 262.2236 15.08844368 65172
STARLINK-5182           
1 54189U 22141AJ  23364.39709060  .00004711  00000+0  31389-3 0  9998
2 54189  53.2181 356.5393 0001755 103.9807 256.1380 15.08837598 65043
STARLINK-5281           
1 54190U 22141AK  23364.36029610  .00000689  00000+0  61371-4 0  9998
2 54190  53.2193 347.0546 0001720  89.9258 270.1931 15.08850971 65170
STARLINK-4619           
1 54191U 22141AL  23364.37136246  .00011505  00000+0  74040-3 0  9999
2 54191  53.2195 347.1257 0001605  87.9034 272.2142 15.08807978 65171
STARLINK-5268           
1 54192U 22141AM  23364.25721098  .00003617  00000+0  24514-3 0  9998
2 54192  53.2178 347.1297 0001436  97.4124 262.7031 15.08849277 65163
STARLINK-5263           
1 54193U 22141AN  23364.28668404  .00001976  00000+0  14219-3 0  9990
2 54193  53.2191 347.3142 0001573  80.6763 279.4407 15.08849168 65166
STARLINK-5271           
1 54194U 22141AP  23364.34555573  .00002198  00000+0  15614-3 0  9997
2 54194  53.2189 346.9681 0001539  89.3651 270.7518 15.08846750 65173
STARLINK-5258           
1 54195U 22141AQ  23364.35661582  .00002117  00000+0  15105-3 0  9993
2 54195  53.2198 347.0302 0002077  70.8085 289.3132 15.08844047 65175
STARLINK-5237           
1 54196U 22141AR  23364.27194838  .00003044  00000+0  20923-3 0  9994
2 54196  53.2182 347.2220 0001603  92.3880 267.7296 15.08848069 65164
STARLINK-5234           
1 54197U 22141AS  23364.19554705  .00001295  00000+0  95307-4 0  9994
2 54197  53.2188 347.4586 0001476 101.3534 258.7625 15.10482313 65157
STARLINK-5246           
1 54198U 22141AT  23364.26826207  .00001039  00000+0  83346-4 0  9998
2 54198  53.2192 347.2014 0001634  95.6017 264.5161 15.08844564 65162
STARLINK-5244           
1 54199U 22141AU  23364.27563094  .00002035  00000+0  14589-3 0  9991
2 54199  53.2184 347.2434 0001461  94.8847 265.2312 15.08847201 65167
STARLINK-5250           
1 54200U 22141AV  23364.32713040  .00001355  00000+0  10317-3 0  9997
2 54200  53.2195 346.8585 0001760 104.1089 256.0099 15.08846149 65170
STARLINK-5199           
1 54201U 22141AW  23364.28300217  .00004957  00000+0  32922-3 0  9998
2 54201  53.2182 347.2809 0001705  86.0093 274.1094 15.08851677 65160
STARLINK-5205           
1 54202U 22141AX  23364.18728310 -.00001399  00000+0 -69771-4 0  9998
2 54202  53.2179 347.4020 0001690 113.6251 246.4919 15.08847825 65157
STARLINK-5247           
1 54203U 22141AY  23364.39706158  .00000591  00000+0  55231-4 0  9995
2 54203  53.2190 346.5799 0001622 103.5971 256.5202 15.08838600 65187
STARLINK-5241           
1 54204U 22141AZ  23364.37494754  .00002999  00000+0  20640-3 0  9999
2 54204  53.2189 346.4389 0001545 102.2382 257.8784 15.08843830 65186
STARLINK-5249           
1 54205U 22141BA  23364.24983966  .00000626  00000+0  57422-4 0  9998
2 54205  53.2176 347.0869 0001706 115.1403 244.9766 15.08858768 65160
STARLINK-5264           
1 54206U 22141BB  23364.26227070  .00001475  00000+0  11070-3 0  9999
2 54206  53.2199 312.2129 0001674  97.0461 263.0722 15.08854203 65653
STARLINK-5262           
1 54207U 22141BC  23364.37863472  .00000891  00000+0  74059-4 0  9992
2 54207  53.2190 346.4634 0001666 103.7026 256.4152 15.08838687 65187
STARLINK-5255           
1 54208U 22141BD  23364.21723261  .00000762  00000+0  65985-4 0  9992
2 54208  53.2180 322.6274 0001607  81.0941 279.0233 15.08841011 65504
STARLINK-5259           
1 54209U 22141BE  23364.31699811  .00002977  00000+0  20497-3 0  9995
2 54209  53.2183 336.7933 0001471  91.9233 268.1927 15.08851527 65310
BLUEWALKER 3 DEB        
1 54247U 22111AS  23363.93136563  .00011476  00000+0  44001-3 0  9992
2 54247  53.1880 252.1117 0009332 263.7514  96.2422 15.26943053 63005
STARLINK-5464           
1 54758U 22175A   23364.49047684  .00001281  00000+0  98563-4 0  9992
2 54758  53.2186  31.5484 0001780 102.3217 257.7974 15.08850748 59183
STARLINK-5215           
1 54759U 22175B   23364.49416240  .00000814  00000+0  69187-4 0  9992
2 54759  53.2178  31.5662 0001526  96.9283 263.1883 15.08849877 59183
STARLINK-5220           
1 54760U 22175C   23364.42562137  .00001641  00000+0  12113-3 0  9999
2 54760  53.2187  36.8403 0001684  75.5630 284.5549 15.08845995 59105
STARLINK-5202           
1 54761U 22175D   23364.36306784  .00000983  00000+0  79856-4 0  9993
2 54761  53.2180  37.1576 0001605  79.3930 280.7243 15.08843559 59093
STARLINK-5214           
1 54762U 22175E   23364.48080979  .00002290  00000+0  16191-3 0  9997
2 54762  53.2176  36.4732 0001428  87.4635 272.6521 15.08842974 59112
STARLINK-5191           
1 54763U 22175F   23364.42193674  .00002105  00000+0  15028-3 0  9992
2 54763  53.2168  36.8170 0001548  93.3227 266.7943 15.08848448 59103
STARLINK-5458           
1 54764U 22175G   23364.46702730  .00002466  00000+0  17293-3 0  9992
2 54764  53.2182  36.3909 0001558  87.9210 272.1961 15.08845523 59110
STARLINK-5466           
1 54765U 22175H   23364.48449102  .00001379  00000+0  10471-3 0  9999
2 54765  53.2183  36.4928 0002206 113.6547 246.4677 15.08850881 59116
STARLINK-5471           
1 54766U 22175J   23364.47344306  .00000571  00000+0  53989-4 0  9994
2 54766  53.2181  36.4255 0001758 101.9434 258.1756 15.08838600 59117
STARLINK-5472           
1 54767U 22175K   23364.46975735 -.00000078  00000+0  13187-4 0  9999
2 54767  53.2180  36.4034 0001860  99.0702 261.0501 15.08842935 59118
STARLINK-5444           
1 54768U 22175L   23364.44086327  .00002697  00000+0  18741-3 0  9996
2 54768  53.2175  21.9612 0001673  88.8999 271.2184 15.08848332 59319
STARLINK-5404           
1 54769U 22175M   23364.47712123  .00002258  00000+0  15988-3 0  9993
2 54769  53.2185  36.4516 0001705  97.4859 262.6327 15.08847487 59113
STARLINK-5448           
1 54770U 22175N   23364.28900530  .00001173  00000+0  91817-4 0  9996
2 54770  53.2186  22.4356 0001850  97.1730 262.9472 15.08837694 59291
STARLINK-5451           
1 54771U 22175P   23364.45362999  .00011912  00000+0  76534-3 0  9997
2 54771  53.2179  31.3180 0001201  32.9913 327.1154 15.08834701 59183
STARLINK-5452           
1 54772U 22175Q   23364.35155811  .00001194  00000+0  93085-4 0  9992
2 54772  53.2179  22.1158 0001606  99.9000 260.2173 15.08844176 59305
STARLINK-5453           
1 54773U 22175R   23364.39614303  .00001034  00000+0  83045-4 0  9991
2 54773  53.2188  36.6536 0001757 101.6137 258.5052 15.08841568 59101
STARLINK-5454           
1 54774U 22175S   23364.43982024  .00000933  00000+0  76731-4 0  9996
2 54774  53.2183  21.2630 0001542  93.9050 266.2119 15.08841843 59321
STARLINK-5465           
1 54775U 22175T   23364.32622105  .00001919  00000+0  13861-3 0  9995
2 54775  53.2178  36.9275 0001824  97.8954 262.2245 15.08843019 59090
STARLINK-5470           
1 54776U 22175U   23364.37034745  .00001506  00000+0  11266-3 0  9997
2 54776  53.2180  36.4965 0001666 104.4866 255.6311 15.08846155 59102
STARLINK-5468           
1 54777U 22175V   23364.38877801  .00000495  00000+0  49194-4 0  9995
2 54777  53.2190  36.6077 0001766 109.5775 250.5408 15.08839712 59108
STARLINK-5450           
1 54778U 22175W   23364.47666400 -.00000522  00000+0 -14667-4 0  9997
2 54778  53.2178  21.4779 0001597  93.8180 266.2995 15.08847613 59321
STARLINK-5447           
1 54779U 22175X   23364.28163281  .00001125  00000+0  88755-4 0  9993
2 54779  53.2181  22.3915 0001840 113.0455 247.0731 15.08842407 59296
STARLINK-5449           
1 54780U 22175Y   23364.32945129  .00004807  00000+0  31985-3 0  9991
2 54780  53.2173  21.9821 0001873  94.0850 266.0356 15.08848474 59309
STARLINK-5443           
1 54781U 22175Z   23364.47298030  .00001749  00000+0  12792-3 0  9997
2 54781  53.2181  21.4494 0001792 100.0581 260.0614 15.08844506 59324
STARLINK-5437           
1 54782U 22175AA  23364.32981346  .00052403  00000+0  19564-2 0  9997
2 54782  53.2232 335.4079 0004743 102.0634 258.0898 15.26897403 59964
STARLINK-5439           
1 54783U 22175AB  23364.46930102  .00000026  00000+0  19709-4 0  9994
2 54783  53.2190  21.4382 0001366  86.5499 273.5650 15.08834914 59326
STARLINK-5442           
1 54784U 22175AC  23364.31884729  .00001564  00000+0  11632-3 0  9996
2 54784  53.2184  36.8845 0001743 104.4134 255.7052 15.08843320 59092
STARLINK-5440           
1 54785U 22175AD  23364.31839909  .00000606  00000+0  56147-4 0  9994
2 54785  53.2185 341.9977 0001454  85.3037 274.8121 15.08851305 59864
STARLINK-5438           
1 54786U 22175AE  23364.49140563  .00002289  00000+0  16182-3 0  9998
2 54786  53.2187  21.5644 0001539  99.5795 260.5371 15.08845930 59328
STARLINK-5441           
1 54787U 22175AF  23364.38139918  .00000935  00000+0  76830-4 0  9992
2 54787  53.2191  36.5599 0001709 101.1798 258.9386 15.08852823 59103
STARLINK-5399           
1 54788U 22175AG  23364.45830991 -.00008311  00000+0 -50558-3 0  9996
2 54788  53.2167  21.3812 0001364  77.6305 282.4840 15.08778317 59321
STARLINK-5446           
1 54789U 22175AH  23364.45777528  .00003851  00000+0  25994-3 0  9991
2 54789  53.2190   6.2674 0001641  96.0085 264.1095 15.08835213 59535
STARLINK-5445           
1 54790U 22175AJ  23364.45087291  .00001637  00000+0  12087-3 0  9993
2 54790  53.2195  21.3196 0001836  81.8494 278.2706 15.08848812 59322
